GLOBALSTAR M068         
1 32266U 07048D   25163.90245413 -.00000064  00000+0  22244-3 0  9990
2 32266  51.9898 315.3186 0001801 117.6297  59.6461 12.62824862817302
GLOBALSTAR M079         
1 37188U 10054A   25162.94094144 -.00000113  00000+0 -51403-4 0  9991
2 37188  52.0012 155.7551 0000281 309.7920  67.3997 12.62265041675793
GLOBALSTAR M074         
1 37189U 10054B   25163.47566940 -.00000123  00000+0 -10730-3 0  9997
2 37189  51.9989 153.4517 0000333  13.1267 154.0251 12.62256974676535
GLOBALSTAR M076         
1 37190U 10054C   25163.17013176 -.00000107  00000+0 -16773-4 0  9990
2 37190  52.0010 154.5516 0000388 351.5032 107.1245 12.62263314676509
GLOBALSTAR M077         
1 37191U 10054D   25163.24685332 -.00000109  00000+0 -31923-4 0  9994
2 37191  52.0066 111.1729 0000460  35.9769 111.3327 12.62268346677269
GLOBALSTAR M075         
1 37192U 10054E   25163.17120662 -.00000082  00000+0  12135-3 0  9999
2 37192  51.9924 196.8100 0000163 134.4101 268.8631 12.62265835675746
GLOBALSTAR M073         
1 37193U 10054F   25163.59543957 -.00000121  00000+0 -97175-4 0  9995
2 37193  52.0051 109.3318 0000502  21.5995 150.0890 12.62272005677304
GLOBALSTAR M083         
1 37739U 11033A   25163.45008139 -.00000094  00000+0  56896-4 0  9995
2 37739  51.9872  58.5131 0000544  70.9234  99.3689 12.62263826646619
GLOBALSTAR M088         
1 37740U 11033B   25162.94797862 -.00000100  00000+0  19446-4 0  9996
2 37740  52.0063 325.5855 0000897 110.7208  57.4507 12.62265432642020
GLOBALSTAR M091         
1 37741U 11033C   25163.57612644 -.00000087  00000+0  93694-4 0  9992
2 37741  52.0007 287.1718 0000757 143.0272 301.1086 12.62268583642868
GLOBALSTAR M085         
1 37742U 11033D   25163.23505345 -.00000068  00000+0  19795-3 0  9993
2 37742  51.9858 239.2527 0000523 166.2666 227.6762 12.62269233643566
GLOBALSTAR M081         
1 37743U 11033E   25163.60227672 -.00000071  00000+0  18312-3 0  9997
2 37743  51.9950 240.9203 0000328 170.2802 331.9714 12.62266391643647
GLOBALSTAR M089         
1 37744U 11033F   25163.05973008 -.00000076  00000+0  15264-3 0  9996
2 37744  51.9906 196.7990 0000230  58.0126 319.0085 12.62264746644296
GLOBALSTAR M084         
1 38040U 11080A   25163.10231940 -.00000097  00000+0  37195-4 0  9997
2 38040  52.0021  63.9534 0000949  50.3729  99.3340 12.62266637622307
GLOBALSTAR M080         
1 38041U 11080B   25162.81283095 -.00000102  00000+0  78132-5 0  9997
2 38041  52.0071  66.4246 0000782  96.8065 306.5094 12.62263309622115
GLOBALSTAR M082         
1 38042U 11080C   25162.90077222 -.00000093  00000+0  60244-4 0  9994
2 38042  52.0096  21.6179 0000883 107.8020 265.8580 12.62266548622831
GLOBALSTAR M092         
1 38043U 11080D   25163.38017128 -.00000112  00000+0 -46372-4 0  9996
2 38043  52.0080 110.5337 0000469  43.5216 109.6859 12.62264259621551
GLOBALSTAR M090         
1 38044U 11080E   25163.03736192 -.00000087  00000+0  92583-4 0  9993
2 38044  52.0143  15.0367 0000741  93.8287  61.7117 12.62273578623004
GLOBALSTAR M086         
1 38045U 11080F   25163.90345213 -.00000086  00000+0  98682-4 0  9995
2 38045  51.9920  12.9283 0000770   2.3202  11.2393 12.62271469623129
GLOBALSTAR M097         
1 39072U 13005A   25163.53111093 -.00000098  00000+0  30242-4 0  9992
2 39072  52.0054 288.6043 0000518 133.5133 226.5777 12.62272389570306
GLOBALSTAR M093         
1 39073U 13005B   25163.50472568 -.00000081  00000+0  12940-3 0  9993
2 39073  51.9816 281.9954 0000551 138.8471 221.2437 12.62265352570293
GLOBALSTAR M094         
1 39074U 13005C   25163.50477119 -.00000082  00000+0  11967-3 0  9990
2 39074  51.9934 196.3730 0000278 234.0963 125.9878 12.62262851571805
GLOBALSTAR M096         
1 39075U 13005D   25163.51794881 -.00000065  00000+0  21569-3 0  9990
2 39075  52.0068 244.8440 0000503 174.0415 186.0458 12.62265200571059
GLOBALSTAR M078         
1 39076U 13005E   25162.85799295 -.00000185  00000+0 -45426-3 0  9993
2 39076  51.9894 331.3690 0001364 137.2913 222.8060 12.62259696569455
GLOBALSTAR M095         
1 39077U 13005F   25163.51781560 -.00000105  00000+0 -76432-5 0  9999
2 39077  51.9816 326.5580 0000887 138.6989 221.3945 12.62263539569548
GLOBALSTAR M087         
1 52888U 22064A   25163.54850931 -.00000126  00000+0 -12520-3 0  9990
2 52888  51.9986 107.9203 0000345  51.3091 308.7807 12.62263478144782
